GOES 1 [-]              
1 08366U 75100A   12289.14011146 -.00000157  00000-0  10000-3 0  1727
2 08366  13.8894 337.1037 0002668 155.1781 204.8255  1.00230370135148
GOES 2 [-]              
1 10061U 77048A   12288.81236161  .00000013  00000-0  10000-3 0  3535
2 10061  14.6342 345.6334 0011661 273.6367  86.2341  0.99398117 73884
GOES 3 [P]              
1 10953U 78062A   12289.20658371 -.00000090  00000-0  10000-3 0  9786
2 10953  14.5530 349.2526 0005097  94.0624 265.9977  1.00273007 78869
GOES 4 [-]              
1 11964U 80074A   12289.11400074 -.00000160  00000-0  10000-3 0  5773
2 11964  15.1016 352.9114 0031177 333.1084  26.7380  0.99228985 78095
GOES 5 [-]              
1 12472U 81049A   12288.27562178 -.00000015  00000-0  10000-3 0  4678
2 12472  14.6091   3.1169 0004113 129.6554 230.3846  1.00210550 72896
GOES 6 [-]              
1 14050U 83041A   12289.23807864 -.00000126  00000-0  10000-3 0  4816
2 14050  14.5133   7.9943 0004899  86.2413 273.8122  1.00218601166002
GOES 7 [-]              
1 17561U 87022A   12288.13549927 -.00000291  00000-0  10000-3 0  6736
2 17561  14.0372  24.4083 0002504 342.8324  17.1568  0.99902676 77096
GOES 8 [-]              
1 23051U 94022A   12287.77602765 -.00000164  00000-0  10000-3 0  3077
2 23051   8.5647  57.5764 0003251 167.0404 193.0120  0.98905208 74738
GOES 9 [P]              
1 23581U 95025A   12288.33283258 -.00000029  00000-0  10000-3 0  5953
2 23581   8.1033  55.9650 0006257  37.5898 322.4890  0.98799010 63433
GOES 10 [-]             
1 24786U 97019A   12287.67214159 -.00000279  00000-0  10000-3 0  5245
2 24786   6.3378  59.2988 0027874 104.3717 256.0179  0.99127011 56560
GOES 11 [+]             
1 26352U 00022A   12288.35166133 -.00000238  00000-0  00000+0 0  9590
2 26352   1.4162 112.5510 0005785  23.6418 337.5081  0.99044551 45551
GOES 12 [B]             
1 26871U 01031A   12289.23678487 -.00000288  00000-0  10000-3 0  7661
2 26871   2.5210  71.6931 0003236 144.8587 193.2052  1.00265811 41195
GOES 13 [+]             
1 29155U 06018A   12289.36787104 -.00000253  00000-0  10000-3 0  2588
2 29155   0.1321 114.1847 0002642  35.6361 291.7019  1.00261876 23459
GOES 14 [S]             
1 35491U 09033A   12289.52802682 -.00000201  00000-0  10000-3 0  6694
2 35491   0.3255 262.1723 0009845  64.6968 154.6331  1.00520090 12123
GOES 15 [S]             
1 36411U 10008A   12289.49064400  .00000083  00000-0  10000-3 0  2700
2 36411   0.3236 262.0151 0002531 275.2678 248.4179  1.00274878  9625
